{"type": "FeatureCollection", "features": [ {"type": "Feature", "properties": {"norad_id": 66543, "name": "STARLINK-35315", "group": "last-30-days", "lat": 12.844345911042844, "lon": 104.90095067900121, "alt_km": 369.3762166414135, "timestamp": "2025-12-06T11:28:09.786532+00:00", "meta": {"OBJECT_NAME": "STARLINK-35315", "OBJECT_ID": "2025-265AD", "EPOCH": "2025-12-05T22:00:03.000096", "MEAN_MOTION": 15.6799535, "ECCENTRICITY": 0.00015248, "INCLINATION": 43.0005, "RA_OF_ASC_NODE": 94.1017, "ARG_OF_PERICENTER": 288.4465, "MEAN_ANOMALY": 161.4261, "EPHEMERIS_TYPE": 0, "CLASSIFICATION_TYPE": "U", "NORAD_CAT_ID": 66543, "ELEMENT_SET_NO": 999, "REV_AT_EPOCH": 378, "BSTAR": -0.01939925, "MEAN_MOTION_DOT": -0.01954555, "MEAN_MOTION_DDOT": 0}, "tle": {"line1": "1 66543U 25265AD  25339.91670139 -.01954555  00000+0 -19399-1 0  9999", "line2": "2 66543  43.0005  94.1017 0001524 288.4465 161.4261 15.67995350  3788"}}, "geometry": {"type": "Point", "coordinates": [104.90095067900121, 12.844345911042844]}}, {"type": "Feature", "properties": {"norad_id": 66544, "name": "STARLINK-35728", "group": "last-30-days", "lat": 14.106733915391654, "lon": 106.37903474293681, "alt_km": 369.1818223048431, "timestamp": "2025-12-06T11:28:09.786545+00:00", "meta": {"OBJECT_NAME": "STARLINK-35728", "OBJECT_ID": "2025-265AE", "EPOCH": "2025-12-05T22:00:03.000096", "MEAN_MOTION": 15.67996273, "ECCENTRICITY": 0.00015272, "INCLINATION": 43.0003, "RA_OF_ASC_NODE": 94.0972, "ARG_OF_PERICENTER": 290.4234, "MEAN_ANOMALY": 161.3671, "EPHEMERIS_TYPE": 0, "CLASSIFICATION_TYPE": "U", "NORAD_CAT_ID": 66544, "ELEMENT_SET_NO": 999, "REV_AT_EPOCH": 389, "BSTAR": -0.019436516, "MEAN_MOTION_DOT": -0.01957937, "MEAN_MOTION_DDOT": 0}, "tle": {"line1": "1 66544U 25265AE  25339.91670139 -.01957937  00000+0 -19437-1 0  9990", "line2": "2 66544  43.0003  94.0972 0001527 290.4234 161.3671 15.67996273  3897"}}, "geometry": {"type": "Point", "coordinates": [106.37903474293681, 14.106733915391654]}}, {"type": "Feature", "properties": {"norad_id": 66545, "name": "SHIJIAN-30A", "group": "last-30-days", "lat": -50.654848912041274, "lon": -71.65868215350935, "alt_km": 519.0000002185998, "timestamp": "2025-12-06T11:28:09.786558+00:00", "meta": {"OBJECT_NAME": "SHIJIAN-30A", "OBJECT_ID": "2025-266A", "EPOCH": "2025-12-05T23:09:30.350304", "MEAN_MOTION": 15.1544029, "ECCENTRICITY": 0.00128309, "INCLINATION": 51.7999, "RA_OF_ASC_NODE": 4.599, "ARG_OF_PERICENTER": 332.3603, "MEAN_ANOMALY": 27.669, "EPHEMERIS_TYPE": 0, "CLASSIFICATION_TYPE": "U", "NORAD_CAT_ID": 66545, "ELEMENT_SET_NO": 999, "REV_AT_EPOCH": 255, "BSTAR": 0.00090147534, "MEAN_MOTION_DOT": 0.00017021, "MEAN_MOTION_DDOT": 0}, "tle": {"line1": "1 66545U 25266A   25339.96493461  .00017021  00000+0  90148-3 0  9996", "line2": "2 66545  51.7999   4.5990 0012830 332.3603  27.6690 15.15440290  2552"}}, "geometry": {"type": "Point", "coordinates": [-71.65868215350935, -50.654848912041274]}}, {"type": "Feature", "properties": {"norad_id": 66546, "name": "SHIJIAN-30B", "group": "last-30-days", "lat": -51.43478450740731, "lon": -78.81561666849962, "alt_km": 520.5310639526142, "timestamp": "2025-12-06T11:28:09.786571+00:00", "meta": {"OBJECT_NAME": "SHIJIAN-30B", "OBJECT_ID": "2025-266B", "EPOCH": "2025-12-05T23:10:45.599520", "MEAN_MOTION": 15.15518032, "ECCENTRICITY": 0.00105031, "INCLINATION": 51.7982, "RA_OF_ASC_NODE": 4.6025, "ARG_OF_PERICENTER": 335.3378, "MEAN_ANOMALY": 24.7095, "EPHEMERIS_TYPE": 0, "CLASSIFICATION_TYPE": "U", "NORAD_CAT_ID": 66546, "ELEMENT_SET_NO": 999, "REV_AT_EPOCH": 255, "BSTAR": 0.0010133965, "MEAN_MOTION_DOT": 0.0001921, "MEAN_MOTION_DDOT": 0}, "tle": {"line1": "1 66546U 25266B   25339.96580555  .00019210  00000+0  10134-2 0  9996", "line2": "2 66546  51.7982   4.6025 0010503 335.3378  24.7095 15.15518032  2559"}}, "geometry": {"type": "Point", "coordinates": [-78.81561666849962, -51.43478450740731]}}, {"type": "Feature", "properties": {"norad_id": 66547, "name": "SHIJIAN-30C", "group": "last-30-days", "lat": -51.74556214576365, "lon": -84.94546473264724, "alt_km": 519.7238368009466, "timestamp": "2025-12-06T11:28:09.786581+00:00", "meta": {"OBJECT_NAME": "SHIJIAN-30C", "OBJECT_ID": "2025-266C", "EPOCH": "2025-12-05T23:11:46.470912", "MEAN_MOTION": 15.15539892, "ECCENTRICITY": 0.00113906, "INCLINATION": 51.7992, "RA_OF_ASC_NODE": 4.6079, "ARG_OF_PERICENTER": 327.5781, "MEAN_ANOMALY": 32.4495, "EPHEMERIS_TYPE": 0, "CLASSIFICATION_TYPE": "U", "NORAD_CAT_ID": 66547, "ELEMENT_SET_NO": 999, "REV_AT_EPOCH": 255, "BSTAR": 0.0008991428, "MEAN_MOTION_DOT": 0.00017018, "MEAN_MOTION_DDOT": 0}, "tle": {"line1": "1 66547U 25266C   25339.96651008  .00017018  00000+0  89914-3 0  9996", "line2": "2 66547  51.7992   4.6079 0011390 327.5781  32.4495 15.15539892  2553"}}, "geometry": {"type": "Point", "coordinates": [-84.94546473264724, -51.74556214576365]}}, {"type": "Feature", "properties": {"norad_id": 66548, "name": "CZ-2C R/B", "group": "last-30-days", "lat": 51.908089423433836, "lon": 85.6033215639499, "alt_km": 444.06293470673063, "timestamp": "2025-12-06T11:28:09.786591+00:00", "meta": {"OBJECT_NAME": "CZ-2C R/B", "OBJECT_ID": "2025-266D", "EPOCH": "2025-12-05T22:32:58.308000", "MEAN_MOTION": 15.29960004, "ECCENTRICITY": 0.00844461, "INCLINATION": 52.0561, "RA_OF_ASC_NODE": 3.6719, "ARG_OF_PERICENTER": 149.9072, "MEAN_ANOMALY": 210.6805, "EPHEMERIS_TYPE": 0, "CLASSIFICATION_TYPE": "U", "NORAD_CAT_ID": 66548, "ELEMENT_SET_NO": 999, "REV_AT_EPOCH": 257, "BSTAR": 0.00055384751, "MEAN_MOTION_DOT": 0.00017816, "MEAN_MOTION_DDOT": 0}, "tle": {"line1": "1 66548U 25266D   25339.93956375  .00017816  00000+0  55385-3 0  9990", "line2": "2 66548  52.0561   3.6719 0084446 149.9072 210.6805 15.29960004  2576"}}, "geometry": {"type": "Point", "coordinates": [85.6033215639499, 51.908089423433836]}}, {"type": "Feature", "properties": {"norad_id": 66549, "name": "SHIJIAN-28", "group": "last-30-days", "lat": 2.1702682138020353, "lon": -78.45744081852699, "alt_km": 35400.790420209574, "timestamp": "2025-12-06T11:28:09.786603+00:00", "meta": {"OBJECT_NAME": "SHIJIAN-28", "OBJECT_ID": "2025-277A", "EPOCH": "2025-11-30T18:06:43.124256", "MEAN_MOTION": 2.28019775, "ECCENTRICITY": 0.7300519, "INCLINATION": 14.4344, "RA_OF_ASC_NODE": 275.4056, "ARG_OF_PERICENTER": 179.5026, "MEAN_ANOMALY": 182.358, "EPHEMERIS_TYPE": 0, "CLASSIFICATION_TYPE": "U", "NORAD_CAT_ID": 66549, "ELEMENT_SET_NO": 999, "REV_AT_EPOCH": 4, "BSTAR": 0.00062085, "MEAN_MOTION_DOT": 6.315e-05, "MEAN_MOTION_DDOT": 0}, "tle": {"line1": "1 66549U 25277A   25334.75466579  .00006315  00000+0  62085-3 0  9997", "line2": "2 66549  14.4344 275.4056 7300519 179.5026 182.3580  2.28019775    48"}}, "geometry": {"type": "Point", "coordinates": [-78.45744081852699, 2.1702682138020353]}}, {"type": "Feature", "properties": {"norad_id": 66550, "name": "CZ-7A R/B", "group": "last-30-days", "lat": 0.01740467772701451, "lon": -86.95271722868732, "alt_km": 33030.45279109643, "timestamp": "2025-12-06T11:28:09.786621+00:00", "meta": {"OBJECT_NAME": "CZ-7A R/B", "OBJECT_ID": "2025-277B", "EPOCH": "2025-12-05T16:08:57.677856", "MEAN_MOTION": 2.46607958, "ECCENTRICITY": 0.71883751, "INCLINATION": 14.4096, "RA_OF_ASC_NODE": 273.3314, "ARG_OF_PERICENTER": 182.4898, "MEAN_ANOMALY": 169.6754, "EPHEMERIS_TYPE": 0, "CLASSIFICATION_TYPE": "U", "NORAD_CAT_ID": 66550, "ELEMENT_SET_NO": 999, "REV_AT_EPOCH": 16, "BSTAR": 0.0024987939, "MEAN_MOTION_DOT": 0.01162886, "MEAN_MOTION_DDOT": 1.281739e-06}, "tle": {"line1": "1 66550U 25277B   25339.67288979  .01162886  12817-5  24988-2 0  9992", "line2": "2 66550  14.4096 273.3314 7188375 182.4898 169.6754  2.46607958   162"}}, "geometry": {"type": "Point", "coordinates": [-86.95271722868732, 0.01740467772701451]}}, {"type": "Feature", "properties": {"norad_id": 66551, "name": "UNKNOWN", "group": "last-30-days", "lat": 8.394408814654092, "lon": 31.358521924197316, "alt_km": 339.5398970932274, "timestamp": "2025-12-06T11:28:09.786642+00:00", "meta": {"OBJECT_NAME": "UNKNOWN", "OBJECT_ID": "2025-271AE", "EPOCH": "2025-12-02T16:00:03.000096", "MEAN_MOTION": 15.87051116, "ECCENTRICITY": 7.17e-05, "INCLINATION": 53.1571, "RA_OF_ASC_NODE": 236.7807, "ARG_OF_PERICENTER": 110.7411, "MEAN_ANOMALY": 313.9012, "EPHEMERIS_TYPE": 0, "CLASSIFICATION_TYPE": "U", "NORAD_CAT_ID": 66551, "ELEMENT_SET_NO": 999, "REV_AT_EPOCH": 262, "BSTAR": -0.0074303, "MEAN_MOTION_DOT": -0.01709685, "MEAN_MOTION_DDOT": 0}, "tle": {"line1": "1 66551U 25271AE  25336.66670139 -.01709685  00000+0 -74303-2 0  9993", "line2": "2 66551  53.1571 236.7807 0000717 110.7411 313.9012 15.87051116  2624"}}, "geometry": {"type": "Point", "coordinates": [31.358521924197316, 8.394408814654092]}}, {"type": "Feature", "properties": {"norad_id": 66554, "name": "GLOBAL-33", "group": "last-30-days", "lat": 32.127168736966965, "lon": 137.35747849266284, "alt_km": 463.8565475517689, "timestamp": "2025-12-06T11:28:09.786670+00:00", "meta": {"OBJECT_NAME": "GLOBAL-33", "OBJECT_ID": "2025-267A", "EPOCH": "2025-12-05T14:53:33.422208", "MEAN_MOTION": 15.31384848, "ECCENTRICITY": 0.00052034, "INCLINATION": 42.0195, "RA_OF_ASC_NODE": 98.086, "ARG_OF_PERICENTER": 1.4634, "MEAN_ANOMALY": 358.6218, "EPHEMERIS_TYPE": 0, "CLASSIFICATION_TYPE": "U", "NORAD_CAT_ID": 66554, "ELEMENT_SET_NO": 999, "REV_AT_EPOCH": 231, "BSTAR": 0.0006698332, "MEAN_MOTION_DOT": 0.00020555, "MEAN_MOTION_DDOT": 0}, "tle": {"line1": "1 66554U 25267A   25339.62052572  .00020555  00000+0  66983-3 0  9990", "line2": "2 66554  42.0195  98.0860 0005203   1.4634 358.6218 15.31384848  2312"}}, "geometry": {"type": "Point", "coordinates": [137.35747849266284, 32.127168736966965]}}]}